[{"OBJECT_NAME":"JILIN-1 GAOFEN 03D52","OBJECT_ID":"2022-155E","EPOCH":"2026-03-09T23:35:25.140768","MEAN_MOTION":15.51754005,"ECCENTRICITY":0.00041872,"INCLINATION":97.6041,"RA_OF_ASC_NODE":205.6865,"ARG_OF_PERICENTER":23.2196,"MEAN_ANOMALY":336.9244,"EPHEMERIS_TYPE":0,"CLASSIFICATION_TYPE":"U","NORAD_CAT_ID":54255,"ELEMENT_SET_NO":999,"REV_AT_EPOCH":18428,"BSTAR":0.00078662811,"MEAN_MOTION_DOT":0.00047033,"MEAN_MOTION_DDOT":0},{"OBJECT_NAME":"STARLINK-34230","OBJECT_ID":"2025-111Q","EPOCH":"2026-03-09T22:00:01.999584","MEAN_MOTION":15.46183828,"ECCENTRICITY":0.00135686,"INCLINATION":42.9937,"RA_OF_ASC_NODE":69.6191,"ARG_OF_PERICENTER":116.6313,"MEAN_ANOMALY":52.4338,"EPHEMERIS_TYPE":0,"CLASSIFICATION_TYPE":"U","NORAD_CAT_ID":64137,"ELEMENT_SET_NO":999,"REV_AT_EPOCH":584,"BSTAR":0.0032637377,"MEAN_MOTION_DOT":0.00167921,"MEAN_MOTION_DDOT":0}]
